{
  "type": "FeatureCollection",
  "features": [
    {
      "type": "Feature",
      "properties": {
        "norad_id": 34590,
        "name": "COSMOS 2251 DEB",
        "group": "cosmos-2251-debris",
        "lat": 7.4804637573835135,
        "lon": 112.98977827398521,
        "alt_km": 728.915101915276,
        "timestamp": "2025-12-27T05:29:39.599128+00:00",
        "meta_object_name": "COSMOS 2251 DEB",
        "meta_object_id": "1993-036WC",
        "meta_epoch": "2025-12-25T21:36:51.910848",
        "meta_mean_motion": 14.5484121,
        "meta_eccentricity": 0.0068093,
        "meta_inclination": 74.0446,
        "meta_ra_of_asc_node": 297.6543,
        "meta_arg_of_pericenter": 63.4192,
        "meta_mean_anomaly": 353.7708,
        "meta_ephemeris_type": 0,
        "meta_classification_type": "U",
        "meta_norad_cat_id": 34590,
        "meta_element_set_no": 999,
        "meta_rev_at_epoch": 89312,
        "meta_bstar": 0.00014464,
        "meta_mean_motion_dot": 6.1e-06,
        "meta_mean_motion_ddot": 0,
        "tle_line1": "1 34590U 93036WC  25359.90060082  .00000610  00000+0  14464-3 0  9999",
        "tle_line2": "2 34590  74.0446 297.6543 0068093  63.4192 353.7708 14.54841210893121"
      },
      "geometry": {
        "type": "Point",
        "coordinates": [
          112.98977827398521,
          7.4804637573835135
        ]
      }
    },
    {
      "type": "Feature",
      "properties": {
        "norad_id": 34609,
        "name": "COSMOS 2251 DEB",
        "group": "cosmos-2251-debris",
        "lat": 21.424124139866255,
        "lon": 86.82112222024766,
        "alt_km": 807.8634925207198,
        "timestamp": "2025-12-27T05:29:39.599144+00:00",
        "meta_object_name": "COSMOS 2251 DEB",
        "meta_object_id": "1993-036WE",
        "meta_epoch": "2025-12-24T00:34:30.192384",
        "meta_mean_motion": 14.2183063,
        "meta_eccentricity": 0.01457677,
        "meta_inclination": 73.7329,
        "meta_ra_of_asc_node": 86.098,
        "meta_arg_of_pericenter": 303.8546,
        "meta_mean_anomaly": 238.3232,
        "meta_ephemeris_type": 0,
        "meta_classification_type": "U",
        "meta_norad_cat_id": 34609,
        "meta_element_set_no": 999,
        "meta_rev_at_epoch": 86792,
        "meta_bstar": 0.00072342659,
        "meta_mean_motion_dot": 1.747e-05,
        "meta_mean_motion_ddot": 0,
        "tle_line1": "1 34609U 93036WE  25358.02396056  .00001747  00000+0  72343-3 0  9997",
        "tle_line2": "2 34609  73.7329  86.0980 0145767 303.8546 238.3232 14.21830630867928"
      },
      "geometry": {
        "type": "Point",
        "coordinates": [
          86.82112222024766,
          21.424124139866255
        ]
      }
    },
    {
      "type": "Feature",
      "properties": {
        "norad_id": 34610,
        "name": "COSMOS 2251 DEB",
        "group": "cosmos-2251-debris",
        "lat": 37.73735464878583,
        "lon": 44.09197572296747,
        "alt_km": 959.3604704085055,
        "timestamp": "2025-12-27T05:29:39.599155+00:00",
        "meta_object_name": "COSMOS 2251 DEB",
        "meta_object_id": "1993-036WF",
        "meta_epoch": "2025-12-26T16:53:37.068864",
        "meta_mean_motion": 14.07151035,
        "meta_eccentricity": 0.01807694,
        "meta_inclination": 74.0165,
        "meta_ra_of_asc_node": 237.8285,
        "meta_arg_of_pericenter": 5.2396,
        "meta_mean_anomaly": 355.0575,
        "meta_ephemeris_type": 0,
        "meta_classification_type": "U",
        "meta_norad_cat_id": 34610,
        "meta_element_set_no": 999,
        "meta_rev_at_epoch": 85756,
        "meta_bstar": 0.0019626331,
        "meta_mean_motion_dot": 3.789e-05,
        "meta_mean_motion_ddot": 0,
        "tle_line1": "1 34610U 93036WF  25360.70390126  .00003789  00000+0  19626-2 0  9991",
        "tle_line2": "2 34610  74.0165 237.8285 0180769   5.2396 355.0575 14.07151035857568"
      },
      "geometry": {
        "type": "Point",
        "coordinates": [
          44.09197572296747,
          37.73735464878583
        ]
      }
    },
    {
      "type": "Feature",
      "properties": {
        "norad_id": 34611,
        "name": "COSMOS 2251 DEB",
        "group": "cosmos-2251-debris",
        "lat": -31.054832986459935,
        "lon": -97.16472283718373,
        "alt_km": 671.0169737426941,
        "timestamp": "2025-12-27T05:29:39.599165+00:00",
        "meta_object_name": "COSMOS 2251 DEB",
        "meta_object_id": "1993-036WG",
        "meta_epoch": "2025-12-26T12:15:57.945312",
        "meta_mean_motion": 14.69738867,
        "meta_eccentricity": 0.0021375,
        "meta_inclination": 74.0531,
        "meta_ra_of_asc_node": 74.3099,
        "meta_arg_of_pericenter": 110.4672,
        "meta_mean_anomaly": 265.0492,
        "meta_ephemeris_type": 0,
        "meta_classification_type": "U",
        "meta_norad_cat_id": 34611,
        "meta_element_set_no": 999,
        "meta_rev_at_epoch": 88593,
        "meta_bstar": 0.0013572,
        "meta_mean_motion_dot": 8.098e-05,
        "meta_mean_motion_ddot": 0,
        "tle_line1": "1 34611U 93036WG  25360.51108733  .00008098  00000+0  13572-2 0  9994",
        "tle_line2": "2 34611  74.0531  74.3099 0021375 110.4672 265.0492 14.69738867885938"
      },
      "geometry": {
        "type": "Point",
        "coordinates": [
          -97.16472283718373,
          -31.054832986459935
        ]
      }
    },
    {
      "type": "Feature",
      "properties": {
        "norad_id": 34613,
        "name": "COSMOS 2251 DEB",
        "group": "cosmos-2251-debris",
        "lat": -30.011609190492795,
        "lon": 81.8053271889325,
        "alt_km": 860.5849165079244,
        "timestamp": "2025-12-27T05:29:39.599175+00:00",
        "meta_object_name": "COSMOS 2251 DEB",
        "meta_object_id": "1993-036WJ",
        "meta_epoch": "2025-12-26T18:41:13.105824",
        "meta_mean_motion": 14.26516068,
        "meta_eccentricity": 0.01108716,
        "meta_inclination": 73.9631,
        "meta_ra_of_asc_node": 253.0594,
        "meta_arg_of_pericenter": 81.2863,
        "meta_mean_anomaly": 337.3921,
        "meta_ephemeris_type": 0,
        "meta_classification_type": "U",
        "meta_norad_cat_id": 34613,
        "meta_element_set_no": 999,
        "meta_rev_at_epoch": 86663,
        "meta_bstar": 0.0011868776,
        "meta_mean_motion_dot": 3.029e-05,
        "meta_mean_motion_ddot": 0,
        "tle_line1": "1 34613U 93036WJ  25360.77862391  .00003029  00000+0  11869-2 0  9997",
        "tle_line2": "2 34613  73.9631 253.0594 0110871  81.2863 337.3921 14.26516068866638"
      },
      "geometry": {
        "type": "Point",
        "coordinates": [
          81.8053271889325,
          -30.011609190492795
        ]
      }
    },
    {
      "type": "Feature",
      "properties": {
        "norad_id": 34614,
        "name": "COSMOS 2251 DEB",
        "group": "cosmos-2251-debris",
        "lat": 28.36975553198507,
        "lon": -33.20856108390242,
        "alt_km": 803.9393965389972,
        "timestamp": "2025-12-27T05:29:39.599186+00:00",
        "meta_object_name": "COSMOS 2251 DEB",
        "meta_object_id": "1993-036WK",
        "meta_epoch": "2025-12-24T21:37:08.839200",
        "meta_mean_motion": 14.17833523,
        "meta_eccentricity": 0.0196231,
        "meta_inclination": 73.8822,
        "meta_ra_of_asc_node": 321.9977,
        "meta_arg_of_pericenter": 314.2153,
        "meta_mean_anomaly": 74.3764,
        "meta_ephemeris_type": 0,
        "meta_classification_type": "U",
        "meta_norad_cat_id": 34614,
        "meta_element_set_no": 999,
        "meta_rev_at_epoch": 84939,
        "meta_bstar": 0.0067486,
        "meta_mean_motion_dot": 0.0001667,
        "meta_mean_motion_ddot": 0,
        "tle_line1": "1 34614U 93036WK  25358.90079675  .00016670  00000+0  67486-2 0  9997",
        "tle_line2": "2 34614  73.8822 321.9977 0196231 314.2153  74.3764 14.17833523849390"
      },
      "geometry": {
        "type": "Point",
        "coordinates": [
          -33.20856108390242,
          28.36975553198507
        ]
      }
    },
    {
      "type": "Feature",
      "properties": {
        "norad_id": 34615,
        "name": "COSMOS 2251 DEB",
        "group": "cosmos-2251-debris",
        "lat": 69.53191083649673,
        "lon": 40.68583328413421,
        "alt_km": 954.8875919149577,
        "timestamp": "2025-12-27T05:29:39.599196+00:00",
        "meta_object_name": "COSMOS 2251 DEB",
        "meta_object_id": "1993-036WL",
        "meta_epoch": "2025-12-26T18:29:29.956704",
        "meta_mean_motion": 13.52208084,
        "meta_eccentricity": 0.04000918,
        "meta_inclination": 74.0044,
        "meta_ra_of_asc_node": 271.6381,
        "meta_arg_of_pericenter": 175.8414,
        "meta_mean_anomaly": 220.5303,
        "meta_ephemeris_type": 0,
        "meta_classification_type": "U",
        "meta_norad_cat_id": 34615,
        "meta_element_set_no": 999,
        "meta_rev_at_epoch": 83005,
        "meta_bstar": 0.00029425265,
        "meta_mean_motion_dot": 3e-06,
        "meta_mean_motion_ddot": 0,
        "tle_line1": "1 34615U 93036WL  25360.77048561  .00000300  00000+0  29425-3 0  9991",
        "tle_line2": "2 34615  74.0044 271.6381 0400091 175.8414 220.5303 13.52208084830056"
      },
      "geometry": {
        "type": "Point",
        "coordinates": [
          40.68583328413421,
          69.53191083649673
        ]
      }
    }
  ]
}